start=new Date('2021-10-03T00:00:00.000Z').valueOf();
sats=[{"TIME_SYSTEM":"UTC","ECCENTRICITY":"0.00017310","REV_AT_EPOCH":"6030","PERIOD":"95.592","MEAN_ELEMENT_THEORY":"SGP4","MEAN_MOTION":"15.06400525","REF_FRAME":"TEME","COUNTRY_CODE":"US","LAUNCH_DATE":"2020-09-03","GP_ID":"186052413","OBJECT_ID":"2020-062AG","FILE":"3141323","SEMIMAJOR_AXIS":"6925.347","EPHEMERIS_TYPE":"0","MEAN_ANOMALY":"269.6087","NORAD_CAT_ID":"46355","OBJECT_TYPE":"PAYLOAD","INCLINATION":"53.0548","OBJECT_NAME":"STARLINK-1661","RA_OF_ASC_NODE":"84.2080","ELEMENT_SET_NO":"999","DECAY_DATE":null,"TLE_LINE2":"2 46355  53.0548  84.2080 0001731  90.5100 269.6087 15.06400525 60304","TLE_LINE1":"1 46355U 20062AG  21275.77498510 -.00000248  00000-0  22465-5 0  9990","CLASSIFICATION_TYPE":"U","CENTER_NAME":"EARTH","BSTAR":"0.00000224650000","PERIAPSIS":"546.013","EPOCH":"2021-10-02T18:35:58.712640","APOAPSIS":"548.411","RCS_SIZE":"LARGE","MEAN_MOTION_DDOT":"0.0000000000000","SITE":"AFETR","MEAN_MOTION_DOT":"-0.00000248","ARG_OF_PERICENTER":"90.5100"},{"ARG_OF_PERICENTER":"89.8081","MEAN_MOTION_DOT":"0.00001444","MEAN_MOTION_DDOT":"0.0000000000000","SITE":"AFETR","RCS_SIZE":"LARGE","APOAPSIS":"548.628","EPOCH":"2021-10-02T17:16:21.064800","PERIAPSIS":"545.783","BSTAR":"0.00011585000000","CLASSIFICATION_TYPE":"U","CENTER_NAME":"EARTH","TLE_LINE1":"1 46356U 20062AH  21275.71968825  .00001444  00000-0  11585-3 0  9993","TLE_LINE2":"2 46356  53.0554  84.4697 0002054  89.8081 270.3144 15.06402608 60291","DECAY_DATE":null,"ELEMENT_SET_NO":"999","OBJECT_NAME":"STARLINK-1665","RA_OF_ASC_NODE":"84.4697","NORAD_CAT_ID":"46356","OBJECT_TYPE":"PAYLOAD","INCLINATION":"53.0554","MEAN_ANOMALY":"270.3144","EPHEMERIS_TYPE":"0","SEMIMAJOR_AXIS":"6925.341","OBJECT_ID":"2020-062AH","GP_ID":"186053164","FILE":"3141323","LAUNCH_DATE":"2020-09-03","COUNTRY_CODE":"US","REF_FRAME":"TEME","MEAN_MOTION":"15.06402608","MEAN_ELEMENT_THEORY":"SGP4","PERIOD":"95.592","TIME_SYSTEM":"UTC","REV_AT_EPOCH":"6029","ECCENTRICITY":"0.00020540"},{"PERIOD":"95.592","TIME_SYSTEM":"UTC","REV_AT_EPOCH":"6057","ECCENTRICITY":"0.00017920","MEAN_ELEMENT_THEORY":"SGP4","MEAN_MOTION":"15.06408970","COUNTRY_CODE":"US","LAUNCH_DATE":"2020-09-03","REF_FRAME":"TEME","EPHEMERIS_TYPE":"0","MEAN_ANOMALY":"259.8847","NORAD_CAT_ID":"46357","OBJECT_TYPE":"PAYLOAD","INCLINATION":"53.0559","GP_ID":"186051912","OBJECT_ID":"2020-062AJ","FILE":"3141323","SEMIMAJOR_AXIS":"6925.321","DECAY_DATE":null,"TLE_LINE2":"2 46357  53.0559  64.4737 0001792 100.2344 259.8847 15.06408970 60579","TLE_LINE1":"1 46357U 20062AJ  21275.71784532  .00000279  00000-0  37642-4 0  9993","CLASSIFICATION_TYPE":"U","CENTER_NAME":"EARTH","OBJECT_NAME":"STARLINK-1666","RA_OF_ASC_NODE":"64.4737","ELEMENT_SET_NO":"999","PERIAPSIS":"545.945","BSTAR":"0.00003764200000","RCS_SIZE":"LARGE","MEAN_MOTION_DDOT":"0.0000000000000","SITE":"AFETR","APOAPSIS":"548.427","EPOCH":"2021-10-02T17:13:41.835648","ARG_OF_PERICENTER":"100.2344","MEAN_MOTION_DOT":"0.00000279"},{"PERIAPSIS":"545.896","BSTAR":"0.00012030000000","DECAY_DATE":null,"TLE_LINE2":"2 46358  53.0537  84.2628 0001916  92.6003 267.5205 15.06396943 60300","TLE_LINE1":"1 46358U 20062AK  21275.76392194  .00001511  00000-0  12030-3 0  9991","CENTER_NAME":"EARTH","CLASSIFICATION_TYPE":"U","RA_OF_ASC_NODE":"84.2628","OBJECT_NAME":"STARLINK-1690","ELEMENT_SET_NO":"999","ARG_OF_PERICENTER":"92.6003","MEAN_MOTION_DOT":"0.00001511","RCS_SIZE":"LARGE","MEAN_MOTION_DDOT":"0.0000000000000","SITE":"AFETR","EPOCH":"2021-10-02T18:20:02.855616","APOAPSIS":"548.550","MEAN_ELEMENT_THEORY":"SGP4","MEAN_MOTION":"15.06396943","PERIOD":"95.592","REV_AT_EPOCH":"6030","ECCENTRICITY":"0.00019160","TIME_SYSTEM":"UTC","EPHEMERIS_TYPE":"0","MEAN_ANOMALY":"267.5205","INCLINATION":"53.0537","OBJECT_TYPE":"PAYLOAD","NORAD_CAT_ID":"46358","GP_ID":"186051662","FILE":"3141323","OBJECT_ID":"2020-062AK","SEMIMAJOR_AXIS":"6925.358","COUNTRY_CODE":"US","LAUNCH_DATE":"2020-09-03","REF_FRAME":"TEME"},{"PERIOD":"95.592","TIME_SYSTEM":"UTC","REV_AT_EPOCH":"6092","ECCENTRICITY":"0.00012620","MEAN_ELEMENT_THEORY":"SGP4","MEAN_MOTION":"15.06400822","COUNTRY_CODE":"US","LAUNCH_DATE":"2020-09-03","REF_FRAME":"TEME","EPHEMERIS_TYPE":"0","MEAN_ANOMALY":"261.8318","NORAD_CAT_ID":"46359","INCLINATION":"53.0550","OBJECT_TYPE":"PAYLOAD","GP_ID":"186052914","OBJECT_ID":"2020-062AL","FILE":"3141323","SEMIMAJOR_AXIS":"6925.346","TLE_LINE1":"1 46359U 20062AL  21275.74410875  .00001462  00000-0  11699-3 0  9992","TLE_LINE2":"2 46359  53.0550  39.3520 0001262  98.2814 261.8318 15.06400822 60926","DECAY_DATE":null,"CLASSIFICATION_TYPE":"U","CENTER_NAME":"EARTH","OBJECT_NAME":"STARLINK-1707","RA_OF_ASC_NODE":"39.3520","ELEMENT_SET_NO":"999","PERIAPSIS":"546.337","BSTAR":"0.00011699000000","RCS_SIZE":"LARGE","SITE":"AFETR","MEAN_MOTION_DDOT":"0.0000000000000","EPOCH":"2021-10-02T17:51:30.996000","APOAPSIS":"548.085","ARG_OF_PERICENTER":"98.2814","MEAN_MOTION_DOT":"0.00001462"},{"MEAN_ELEMENT_THEORY":"SGP4","MEAN_MOTION":"15.06400491","TIME_SYSTEM":"UTC","REV_AT_EPOCH":"6093","ECCENTRICITY":"0.00011450","PERIOD":"95.592","OBJECT_ID":"2020-062AM","GP_ID":"186052664","FILE":"3141323","SEMIMAJOR_AXIS":"6925.347","MEAN_ANOMALY":"261.7351","EPHEMERIS_TYPE":"0","NORAD_CAT_ID":"46360","INCLINATION":"53.0546","OBJECT_TYPE":"PAYLOAD","REF_FRAME":"TEME","COUNTRY_CODE":"US","LAUNCH_DATE":"2020-09-03","BSTAR":"0.00008745600000","PERIAPSIS":"546.419","OBJECT_NAME":"STARLINK-1713","RA_OF_ASC_NODE":"39.2579","ELEMENT_SET_NO":"999","TLE_LINE2":"2 46360  53.0546  39.2579 0001145  98.3768 261.7351 15.06400491 60934","TLE_LINE1":"1 46360U 20062AM  21275.76622575  .00001022  00000-0  87456-4 0  9995","DECAY_DATE":null,"CLASSIFICATION_TYPE":"U","CENTER_NAME":"EARTH","MEAN_MOTION_DOT":"0.00001022","ARG_OF_PERICENTER":"98.3768","EPOCH":"2021-10-02T18:23:21.904800","APOAPSIS":"548.005","RCS_SIZE":"LARGE","MEAN_MOTION_DDOT":"0.0000000000000","SITE":"AFETR"},{"MEAN_MOTION_DOT":"0.00000883","ARG_OF_PERICENTER":"105.0196","EPOCH":"2021-10-02T17:40:53.952384","APOAPSIS":"548.220","RCS_SIZE":"LARGE","MEAN_MOTION_DDOT":"0.0000000000000","SITE":"AFETR","BSTAR":"0.00007815100000","PERIAPSIS":"546.223","RA_OF_ASC_NODE":"39.3870","OBJECT_NAME":"STARLINK-1722","ELEMENT_SET_NO":"999","TLE_LINE2":"2 46361  53.0562  39.3870 0001442 105.0196 255.0953 15.06397444 60925","DECAY_DATE":null,"TLE_LINE1":"1 46361U 20062AN  21275.73673556  .00000883  00000-0  78151-4 0  9994","CENTER_NAME":"EARTH","CLASSIFICATION_TYPE":"U","GP_ID":"186051412","FILE":"3141323","OBJECT_ID":"2020-062AN","SEMIMAJOR_AXIS":"6925.356","EPHEMERIS_TYPE":"0","MEAN_ANOMALY":"255.0953","OBJECT_TYPE":"PAYLOAD","INCLINATION":"53.0562","NORAD_CAT_ID":"46361","REF_FRAME":"TEME","COUNTRY_CODE":"US","LAUNCH_DATE":"2020-09-03","MEAN_ELEMENT_THEORY":"SGP4","MEAN_MOTION":"15.06397444","REV_AT_EPOCH":"6092","ECCENTRICITY":"0.00014420","TIME_SYSTEM":"UTC","PERIOD":"95.592"},{"ARG_OF_PERICENTER":"104.9579","MEAN_MOTION_DOT":"0.00000802","MEAN_MOTION_DDOT":"0.0000000000000","SITE":"AFETR","RCS_SIZE":"LARGE","EPOCH":"2021-10-02T17:09:03.162816","APOAPSIS":"548.196","PERIAPSIS":"546.242","BSTAR":"0.00007275200000","CLASSIFICATION_TYPE":"U","CENTER_NAME":"EARTH","TLE_LINE2":"2 46362  53.0549  39.4819 0001411 104.9579 255.1566 15.06398316 60924","DECAY_DATE":null,"TLE_LINE1":"1 46362U 20062AP  21275.71461994  .00000802  00000-0  72752-4 0  9996","ELEMENT_SET_NO":"999","OBJECT_NAME":"STARLINK-1726","RA_OF_ASC_NODE":"39.4819","NORAD_CAT_ID":"46362","OBJECT_TYPE":"PAYLOAD","INCLINATION":"53.0549","EPHEMERIS_TYPE":"0","MEAN_ANOMALY":"255.1566","SEMIMAJOR_AXIS":"6925.354","FILE":"3141323","GP_ID":"186052163","OBJECT_ID":"2020-062AP","LAUNCH_DATE":"2020-09-03","COUNTRY_CODE":"US","REF_FRAME":"TEME","MEAN_MOTION":"15.06398316","MEAN_ELEMENT_THEORY":"SGP4","PERIOD":"95.592","TIME_SYSTEM":"UTC","REV_AT_EPOCH":"6092","ECCENTRICITY":"0.00014110"},{"SEMIMAJOR_AXIS":"6925.359","GP_ID":"186052414","FILE":"3141323","OBJECT_ID":"2020-062AQ","NORAD_CAT_ID":"46363","OBJECT_TYPE":"PAYLOAD","INCLINATION":"53.0541","EPHEMERIS_TYPE":"0","MEAN_ANOMALY":"251.5018","REF_FRAME":"TEME","LAUNCH_DATE":"2020-09-03","COUNTRY_CODE":"US","MEAN_MOTION":"15.06396475","MEAN_ELEMENT_THEORY":"SGP4","TIME_SYSTEM":"UTC","REV_AT_EPOCH":"6091","ECCENTRICITY":"0.00014290","PERIOD":"95.592","MEAN_MOTION_DOT":"0.00001956","ARG_OF_PERICENTER":"108.6126","APOAPSIS":"548.214","EPOCH":"2021-10-02T15:22:55.079328","MEAN_MOTION_DDOT":"0.0000000000000","SITE":"AFETR","RCS_SIZE":"LARGE","BSTAR":"0.00015021000000","PERIAPSIS":"546.235","ELEMENT_SET_NO":"999","OBJECT_NAME":"STARLINK-1739","RA_OF_ASC_NODE":"39.8131","CLASSIFICATION_TYPE":"U","CENTER_NAME":"EARTH","TLE_LINE2":"2 46363  53.0541  39.8131 0001429 108.6126 251.5018 15.06396475 60911","DECAY_DATE":null,"TLE_LINE1":"1 46363U 20062AQ  21275.64091527  .00001956  00000-0  15021-3 0  9996"},{"ARG_OF_PERICENTER":"43.2546","MEAN_MOTION_DOT":"-0.00000173","RCS_SIZE":"LARGE","MEAN_MOTION_DDOT":"0.0000000000000","SITE":"AFETR","APOAPSIS":"551.926","EPOCH":"2021-10-02T17:22:20.252928","PERIAPSIS":"542.448","BSTAR":"0.00000745050000","TLE_LINE2":"2 46364  53.0570  19.4481 0006843  43.2546 316.8979 15.06408659 61203","DECAY_DATE":null,"TLE_LINE1":"1 46364U 20062AR  21275.72384552 -.00000173  00000-0  74505-5 0  9994","CLASSIFICATION_TYPE":"U","CENTER_NAME":"EARTH","OBJECT_NAME":"STARLINK-1763","RA_OF_ASC_NODE":"19.4481","ELEMENT_SET_NO":"999","EPHEMERIS_TYPE":"0","MEAN_ANOMALY":"316.8979","NORAD_CAT_ID":"46364","OBJECT_TYPE":"PAYLOAD","INCLINATION":"53.0570","OBJECT_ID":"2020-062AR","GP_ID":"186053165","FILE":"3141323","SEMIMAJOR_AXIS":"6925.322","COUNTRY_CODE":"US","LAUNCH_DATE":"2020-09-03","REF_FRAME":"TEME","MEAN_ELEMENT_THEORY":"SGP4","MEAN_MOTION":"15.06408659","PERIOD":"95.592","TIME_SYSTEM":"UTC","REV_AT_EPOCH":"6120","ECCENTRICITY":"0.00068430"}];
